{"type": "FeatureCollection", "name": "etablissements", "features": [{"type": "Feature", "properties": {"Name": "École maternelle Jules Ferry", "amenity": "school", "addr_city": "Le Tampon", "addr_postcode": "97430", "addr_street": "Rue Jules Ferry", "phone": null, "school_FR": "maternelle", "ref_UAI": null, "note": null}, "geometry": {"type": "Point", "coordinates": [55.518538, -21.275121]}}, {"type": "Feature", "properties": {"Name": "École Edgard Avril", "amenity": "school", "addr_city": "Le Tampon", "addr_postcode": "97418", "addr_street": "Chemin de l'École", "phone": "+262 262 27 51 41", "school_FR": "primaire", "ref_UAI": null, "note": null}, "geometry": {"type": "Point", "coordinates": [55.549121, -21.220223]}}, {"type": "Feature", "properties": {"Name": "Collège de la Chatoire", "amenity": "school", "addr_city": null, "addr_postcode": null, "addr_street": null, "phone": null, "school_FR": "collège", "ref_UAI": "9741262D", "note": null}, "geometry": {"type": "Point", "coordinates": [55.505675, -21.277564]}}, {"type": "Feature", "properties": {"Name": "École Elémentaire Antoine Lucas", "amenity": "school", "addr_city": "Le Tampon", "addr_postcode": "97430", "addr_street": "Rue des Abeilles", "phone": "+262 262 27 05 79", "school_FR": "élémentaire", "ref_UAI": null, "note": "ELEMENTAIRE"}, "geometry": {"type": "Point", "coordinates": [55.521176, -21.287777]}}, {"type": "Feature", "properties": {"Name": "École maternelle Georges Besson", "amenity": "school", "addr_city": null, "addr_postcode": null, "addr_street": "Chemin du Mazeau", "phone": "+262 262 57 27 80", "school_FR": "maternelle", "ref_UAI": null, "note": null}, "geometry": {"type": "Point", "coordinates": [55.504321, -21.260175]}}, {"type": "Feature", "properties": {"Name": "ESIROI CODE", "amenity": "school", "addr_city": null, "addr_postcode": null, "addr_street": null, "phone": null, "school_FR": null, "ref_UAI": null, "note": null}, "geometry": {"type": "Point", "coordinates": [55.50658, -21.269722]}}, {"type": "Feature", "properties": {"Name": "Bâtiment I", "amenity": "school", "addr_city": null, "addr_postcode": null, "addr_street": null, "phone": null, "school_FR": null, "ref_UAI": null, "note": null}, "geometry": {"type": "Point", "coordinates": [55.507711, -21.268874]}}, {"type": "Feature", "properties": {"Name": "École Elémentaire du Bras Creux", "amenity": "school", "addr_city": "Le Tampon", "addr_postcode": "97430", "addr_street": "Impasse des Petunias", "phone": "+262 262 27 86 79", "school_FR": "élémentaire", "ref_UAI": null, "note": null}, "geometry": {"type": "Point", "coordinates": [55.53616, -21.256596]}}, {"type": "Feature", "properties": {"Name": "École primaire Jean Albany", "amenity": "school", "addr_city": "Le Tampon", "addr_postcode": "97418", "addr_street": "Route de Notre-Dame-de-la-Paix", "phone": "+262 2 62 27 24 63", "school_FR": "primaire", "ref_UAI": null, "note": null}, "geometry": {"type": "Point", "coordinates": [55.563021, -21.280997]}}, {"type": "Feature", "properties": {"Name": "École primaire Piton Hyacinthes", "amenity": "school", "addr_city": "Le Tampon", "addr_postcode": "97418", "addr_street": "Chemin des Acacias", "phone": "+262 2 62 27 51 97", "school_FR": "primaire", "ref_UAI": null, "note": null}, "geometry": {"type": "Point", "coordinates": [55.530174, -21.222826]}}, {"type": "Feature", "properties": {"Name": "École Ernest Velia 19ème", "amenity": "school", "addr_city": null, "addr_postcode": null, "addr_street": null, "phone": null, "school_FR": null, "ref_UAI": "9740395L", "note": null}, "geometry": {"type": "Point", "coordinates": [55.541789, -21.238444]}}, {"type": "Feature", "properties": {"Name": "École élémentaire du Piton Ravine Blanche", "amenity": "school", "addr_city": null, "addr_postcode": null, "addr_street": null, "phone": null, "school_FR": null, "ref_UAI": null, "note": null}, "geometry": {"type": "Point", "coordinates": [55.569001, -21.234911]}}, {"type": "Feature", "properties": {"Name": "École élémentaire CHARLES ISAUTIER", "amenity": "school", "addr_city": "Le Tampon", "addr_postcode": "97430", "addr_street": "Rue Lucien Gasparin", "phone": "+262 262 39 78 86", "school_FR": null, "ref_UAI": null, "note": "Ecole élémentaire du CP au CM2"}, "geometry": {"type": "Point", "coordinates": [55.516524, -21.267325]}}, {"type": "Feature", "properties": {"Name": "Maternelle Bras Creux", "amenity": "school", "addr_city": "Le Tampon", "addr_postcode": "97430", "addr_street": "Impasse des Petunias", "phone": "+262 262 27 82 26", "school_FR": "maternelle", "ref_UAI": null, "note": "Maternelle"}, "geometry": {"type": "Point", "coordinates": [55.535876, -21.256965]}}, {"type": "Feature", "properties": {"Name": "École primaire publique Just Sauveur", "amenity": "school", "addr_city": "Le Tampon", "addr_postcode": "97430", "addr_street": "Rue d'Allemagne", "phone": "+262 262 57 44 94", "school_FR": "primaire", "ref_UAI": "9741221J", "note": "Primaire"}, "geometry": {"type": "Point", "coordinates": [55.504487, -21.278704]}}, {"type": "Feature", "properties": {"Name": "Maternelle du 17ème", "amenity": "school", "addr_city": "Le Tampon", "addr_postcode": "97430", "addr_street": "Chemin Barbot", "phone": "+262 2 62 27 03 83", "school_FR": "maternelle", "ref_UAI": "9741179N", "note": null}, "geometry": {"type": "Point", "coordinates": [55.525598, -21.240159]}}, {"type": "Feature", "properties": {"Name": "Élémentaire du 17ème", "amenity": "school", "addr_city": "Le Tampon", "addr_postcode": "97430", "addr_street": "Chemin Barbot", "phone": "+262 2 62 27 13 62", "school_FR": "élémentaire", "ref_UAI": null, "note": null}, "geometry": {"type": "Point", "coordinates": [55.525919, -21.239446]}}, {"type": "Feature", "properties": {"Name": "École maternelle 14ème km", "amenity": "school", "addr_city": "Le Tampon", "addr_postcode": "97430", "addr_street": "Chemin des Bambins", "phone": "+262 262 27 17 42", "school_FR": "maternelle", "ref_UAI": "9740808K", "note": null}, "geometry": {"type": "Point", "coordinates": [55.522013, -21.251265]}}, {"type": "Feature", "properties": {"Name": "École élémentaire Jules Ferry", "amenity": "school", "addr_city": "Le Tampon", "addr_postcode": "97430", "addr_street": "Rue Jules Ferry", "phone": "+262 262 27 02 91", "school_FR": "élémentaire", "ref_UAI": null, "note": null}, "geometry": {"type": "Point", "coordinates": [55.517865, -21.27524]}}, {"type": "Feature", "properties": {"Name": "École élémentaire publique du 14ème", "amenity": "school", "addr_city": "Le Tampon", "addr_postcode": "97430", "addr_street": "Rue Mary et Ary Leblond", "phone": "+262 262 27 05 17", "school_FR": "élémentaire", "ref_UAI": "9740398P", "note": "ELEMENTAIRE"}, "geometry": {"type": "Point", "coordinates": [55.521642, -21.250637]}}, {"type": "Feature", "properties": {"Name": "École maternelle Terrain Fleury", "amenity": "school", "addr_city": "Le Tampon", "addr_postcode": "97430", "addr_street": "Rue des Abeilles", "phone": "+262 262 27 03 86", "school_FR": "maternelle", "ref_UAI": null, "note": null}, "geometry": {"type": "Point", "coordinates": [55.521075, -21.287575]}}, {"type": "Feature", "properties": {"Name": "École primaire Aristide Briand", "amenity": "school", "addr_city": "Le Tampon", "addr_postcode": "97430", "addr_street": "Rue Aristide Briand", "phone": "+262 262 27 03 96", "school_FR": "primaire", "ref_UAI": "9740399R", "note": null}, "geometry": {"type": "Point", "coordinates": [55.515136, -21.277514]}}, {"type": "Feature", "properties": {"Name": "École primaire privée Marthe Robin", "amenity": "school", "addr_city": "Le Tampon", "addr_postcode": "97430", "addr_street": "Rue Jules Bertaut", "phone": "+262 262 27 30 43", "school_FR": "primaire", "ref_UAI": null, "note": "École privée catholique"}, "geometry": {"type": "Point", "coordinates": [55.518156, -21.279959]}}, {"type": "Feature", "properties": {"Name": "Élémentaire du 12ème", "amenity": "school", "addr_city": "Le Tampon", "addr_postcode": "97430", "addr_street": "Rue Saint-Vincent de Paul", "phone": "+262 2 62 27 05 77", "school_FR": "élémentaire", "ref_UAI": null, "note": null}, "geometry": {"type": "Point", "coordinates": [55.528469, -21.270845]}}, {"type": "Feature", "properties": {"Name": "Maternelle du 12ème", "amenity": "school", "addr_city": "Le Tampon", "addr_postcode": "97430", "addr_street": "Rue Bigey", "phone": "+262 2 62 27 26 25", "school_FR": "maternelle", "ref_UAI": "9740613Y", "note": null}, "geometry": {"type": "Point", "coordinates": [55.52513, -21.269225]}}, {"type": "Feature", "properties": {"Name": "École Primaire Vincent Sery", "amenity": "school", "addr_city": null, "addr_postcode": null, "addr_street": "Route Départementale Dite Stéphane", "phone": "+262 262 57 60 72", "school_FR": "primaire", "ref_UAI": null, "note": null}, "geometry": {"type": "Point", "coordinates": [55.503046, -21.260893]}}, {"type": "Feature", "properties": {"Name": "École élémentaire Iris Hoarau", "amenity": "school", "addr_city": null, "addr_postcode": null, "addr_street": "Rue Charles Baudelaire", "phone": "+262 262 27 13 94", "school_FR": "élémentaire", "ref_UAI": "9740411D", "note": null}, "geometry": {"type": "Point", "coordinates": [55.50269, -21.260272]}}, {"type": "Feature", "properties": {"Name": "École élémentaire Maximilien Lorion", "amenity": "school", "addr_city": "Le Tampon", "addr_postcode": "97418", "addr_street": "Rue des Émeraudes", "phone": "+262 2 62 38 67 42", "school_FR": "élémentaire", "ref_UAI": "9741358H", "note": null}, "geometry": {"type": "Point", "coordinates": [55.55706, -21.220699]}}, {"type": "Feature", "properties": {"Name": "École primaire publique Petite Ferme", "amenity": "school", "addr_city": "Le Tampon", "addr_postcode": "97418", "addr_street": "Route de Notre-Dame-de-la-Paix", "phone": "+262 2 62 27 52 78", "school_FR": "primaire", "ref_UAI": "9740393J", "note": null}, "geometry": {"type": "Point", "coordinates": [55.573165, -21.225543]}}, {"type": "Feature", "properties": {"Name": "École primaire Piton Ravine Blanche", "amenity": "school", "addr_city": "Le Tampon", "addr_postcode": "97418", "addr_street": "Rue des Eucalyptus", "phone": "+262 2 62 27 52 89", "school_FR": "primaire", "ref_UAI": null, "note": null}, "geometry": {"type": "Point", "coordinates": [55.56926, -21.234626]}}, {"type": "Feature", "properties": {"Name": "École maternelle Charles Isautier", "amenity": "school", "addr_city": "Le Tampon", "addr_postcode": "97430", "addr_street": "Boulevard Michel Debré", "phone": "+262 2 62 57 58 88", "school_FR": "maternelle", "ref_UAI": null, "note": null}, "geometry": {"type": "Point", "coordinates": [55.516705, -21.266782]}}, {"type": "Feature", "properties": {"Name": "École maternelle Petit Tampon", "amenity": "school", "addr_city": "Le Tampon", "addr_postcode": "97430", "addr_street": "Rue des Goyaves", "phone": "+262 262 27 26 48", "school_FR": "maternelle", "ref_UAI": null, "note": null}, "geometry": {"type": "Point", "coordinates": [55.537956, -21.281751]}}, {"type": "Feature", "properties": {"Name": "École primaire Petit Tampon", "amenity": "school", "addr_city": "Le Tampon", "addr_postcode": "97430", "addr_street": "Impasse des Goyaves", "phone": "+262 262 27 10 47", "school_FR": "primaire", "ref_UAI": null, "note": null}, "geometry": {"type": "Point", "coordinates": [55.537438, -21.281673]}}, {"type": "Feature", "properties": {"Name": "École primaire Alfred Isautier", "amenity": "school", "addr_city": "Le Tampon", "addr_postcode": "97430", "addr_street": "Chemin de l'École", "phone": "+262 2 62 38 90 80", "school_FR": "primaire", "ref_UAI": "9740396M", "note": null}, "geometry": {"type": "Point", "coordinates": [55.536358, -21.310601]}}, {"type": "Feature", "properties": {"Name": "École primaire du Dassy", "amenity": "school", "addr_city": null, "addr_postcode": null, "addr_street": "Chemin du Dassy", "phone": "+33 2 62 27 01 0", "school_FR": "primaire", "ref_UAI": "9740389E", "note": null}, "geometry": {"type": "Point", "coordinates": [55.485732, -21.256526]}}, {"type": "Feature", "properties": {"Name": "Collège des Trois Mares", "amenity": "school", "addr_city": null, "addr_postcode": null, "addr_street": null, "phone": null, "school_FR": "collège", "ref_UAI": null, "note": null}, "geometry": {"type": "Point", "coordinates": [55.50479, -21.269435]}}, {"type": "Feature", "properties": {"Name": "École primaire de Pont d'Yves", "amenity": "school", "addr_city": null, "addr_postcode": null, "addr_street": null, "phone": null, "school_FR": "primaire", "ref_UAI": null, "note": null}, "geometry": {"type": "Point", "coordinates": [55.50534, -21.234623]}}, {"type": "Feature", "properties": {"Name": "École maternelle", "amenity": "school", "addr_city": null, "addr_postcode": null, "addr_street": null, "phone": null, "school_FR": "maternelle", "ref_UAI": null, "note": null}, "geometry": {"type": "Point", "coordinates": [55.505636, -21.234966]}}, {"type": "Feature", "properties": {"Name": "Collège de Trois-Mares", "amenity": "school", "addr_city": "Le Tampon", "addr_postcode": "97430", "addr_street": "Rue Montaigne", "phone": null, "school_FR": null, "ref_UAI": null, "note": "Collège Laïc, de la 6ème à la 3ème"}, "geometry": {"type": "Point", "coordinates": [55.499639, -21.259596]}}, {"type": "Feature", "properties": {"Name": null, "amenity": "college", "addr_city": null, "addr_postcode": null, "addr_street": null, "phone": null, "school_FR": null, "ref_UAI": null, "note": null}, "geometry": {"type": "Point", "coordinates": [55.526979, -21.284426]}}, {"type": "Feature", "properties": {"Name": "Lycée Roland Garros", "amenity": "school", "addr_city": "Le Tampon", "addr_postcode": "97430", "addr_street": "Rue Rolland Garros", "phone": "+262 2 62 57 81 00", "school_FR": "lycée", "ref_UAI": null, "note": null}, "geometry": {"type": "Point", "coordinates": [55.519965, -21.274036]}}, {"type": "Feature", "properties": {"Name": "Collège du 12e km", "amenity": "school", "addr_city": "Le Tampon", "addr_postcode": "97430", "addr_street": "Rue Georges Pompidou", "phone": null, "school_FR": "collège", "ref_UAI": "9741581A", "note": null}, "geometry": {"type": "Point", "coordinates": [55.525066, -21.259883]}}, {"type": "Feature", "properties": {"Name": "École maternelle SIDR 400", "amenity": "school", "addr_city": "Le Tampon", "addr_postcode": "97430", "addr_street": "Rue Jules Bertaut", "phone": "+262 262 27 03 64", "school_FR": "maternelle", "ref_UAI": "9740755C", "note": null}, "geometry": {"type": "Point", "coordinates": [55.512485, -21.282986]}}, {"type": "Feature", "properties": {"Name": "École élémentaire publique Louis Clerc Fontaine", "amenity": "school", "addr_city": "Le Tampon", "addr_postcode": "97430", "addr_street": "Rue Jules Bertaut", "phone": "+262 262 54 01 15", "school_FR": "élémentaire", "ref_UAI": "9741076B", "note": null}, "geometry": {"type": "Point", "coordinates": [55.513701, -21.283192]}}, {"type": "Feature", "properties": {"Name": "École primaire Ligne d'Équerre", "amenity": "school", "addr_city": null, "addr_postcode": null, "addr_street": null, "phone": null, "school_FR": "primaire", "ref_UAI": "9740415H", "note": null}, "geometry": {"type": "Point", "coordinates": [55.561736, -21.296743]}}, {"type": "Feature", "properties": {"Name": "École primaire Bourg Murat", "amenity": "school", "addr_city": "Le Tampon", "addr_postcode": "97418", "addr_street": "Rue Josémont Lauret", "phone": "+262 262 27 50 76", "school_FR": "primaire", "ref_UAI": "9740414G", "note": null}, "geometry": {"type": "Point", "coordinates": [55.579723, -21.203187]}}, {"type": "Feature", "properties": {"Name": "École primaire Coin Tranquille", "amenity": "school", "addr_city": "Le Tampon", "addr_postcode": "97418", "addr_street": "Impasse des Marmailles", "phone": "+262 2 62 27 54 24", "school_FR": "primaire", "ref_UAI": "9740894D", "note": null}, "geometry": {"type": "Point", "coordinates": [55.557367, -21.235685]}}, {"type": "Feature", "properties": {"Name": "Collège Michel Debré", "amenity": "school", "addr_city": "Le Tampon", "addr_postcode": "97418", "addr_street": "Rue du Collège", "phone": "+262 262 27 52 32", "school_FR": "collège", "ref_UAI": "9740620F", "note": null}, "geometry": {"type": "Point", "coordinates": [55.554084, -21.217587]}}, {"type": "Feature", "properties": {"Name": "École primaire du Bois Court", "amenity": "school", "addr_city": "Le Tampon", "addr_postcode": "97418", "addr_street": "Rue Raphael Douyere", "phone": "+262 262 27 54 84", "school_FR": "primaire", "ref_UAI": "9740392H", "note": null}, "geometry": {"type": "Point", "coordinates": [55.538971, -21.197297]}}, {"type": "Feature", "properties": {"Name": "Lycée Boisjoly Potier", "amenity": "school", "addr_city": "Le Tampon", "addr_postcode": "97430", "addr_street": "Rue Ignez Pleyel", "phone": "+262 262 57 90 30", "school_FR": "lycée", "ref_UAI": null, "note": "Rue Ignace Pleyel"}, "geometry": {"type": "Point", "coordinates": [55.524338, -21.249734]}}, {"type": "Feature", "properties": {"Name": "Collège du 14e Km", "amenity": "school", "addr_city": "Le Tampon", "addr_postcode": "97430", "addr_street": "Chemin Armanette", "phone": null, "school_FR": "collège", "ref_UAI": "9740070H", "note": null}, "geometry": {"type": "Point", "coordinates": [55.525566, -21.25184]}}, {"type": "Feature", "properties": {"Name": "Lycée Pierre-Lagourgue (3Mares)", "amenity": "school", "addr_city": "Le Tampon", "addr_postcode": "97430", "addr_street": "Chemin du Mazeau", "phone": "+262 262964949", "school_FR": "lycée", "ref_UAI": "9741263E", "note": null}, "geometry": {"type": "Point", "coordinates": [55.508519, -21.258316]}}, {"type": "Feature", "properties": {"Name": "École primaire de Bras de Pontho", "amenity": "school", "addr_city": "Le Tampon", "addr_postcode": "97430", "addr_street": "Chemin Pierre Larousse", "phone": "+262 262 27 27 17", "school_FR": "primaire", "ref_UAI": "9740403V", "note": null}, "geometry": {"type": "Point", "coordinates": [55.492356, -21.242651]}}, {"type": "Feature", "properties": {"Name": "École primaire Quatre Cents Champcourt", "amenity": "school", "addr_city": "Le Tampon", "addr_postcode": "97430", "addr_street": "Chemin Champcourt", "phone": "+262 262 27 12 79", "school_FR": "primaire", "ref_UAI": "9740409B", "note": "MATERNELLE + PRIMAIRE"}, "geometry": {"type": "Point", "coordinates": [55.500787, -21.271994]}}, {"type": "Feature", "properties": {"Name": "École primaire la Grande Ferme", "amenity": "school", "addr_city": "Le Tampon", "addr_postcode": "97418", "addr_street": "Route de la Grande Ferme", "phone": null, "school_FR": "primaire", "ref_UAI": null, "note": null}, "geometry": {"type": "Point", "coordinates": [55.5898, -21.215705]}}, {"type": "Feature", "properties": {"Name": "École Primaire Publique Notre-Dame de la Paix", "amenity": "school", "addr_city": "Le Tampon", "addr_postcode": "97418", "addr_street": "Route de Notre-Dame-de-la-Paix", "phone": "+262 262 27 50 86", "school_FR": "primaire", "ref_UAI": null, "note": null}, "geometry": {"type": "Point", "coordinates": [55.594084, -21.24588]}}]}